ONEWEB-0667             
1 55827U 23029AH  26185.22442936  .00000005  00000+0 -18997-4 0  9990
2 55827  87.9202 271.0364 0001869 101.7754 258.3589 13.20772651163395
ONEWEB-0669             
1 55828U 23029AJ  26184.76483275 -.00000038  00000+0 -12591-3 0  9990
2 55828  87.9196 271.1381 0001871  83.3228 276.8118 13.20772264163339
ONEWEB-0670             
1 55829U 23029AK  26185.26267240  .00000246  00000+0  62979-3 0  9993
2 55829  87.8960 286.3369 0001543  99.9885 260.1420 13.14501292161671
ONEWEB-0671             
1 55830U 23029AL  26185.27391744  .00000125  00000+0  27895-3 0  9997
2 55830  87.9185 301.5726 0001814 103.5762 256.5573 13.19725685161157
ONEWEB-0672             
1 55831U 23029AM  26185.21431243  .00000000  00000+0 -30930-4 0  9999
2 55831  87.9193 271.0422 0002169  93.6059 266.5323 13.20772842163394
ONEWEB-0673             
1 55832U 23029AN  26185.02355472  .00000070  00000+0  14226-3 0  9993
2 55832  87.9192 301.6150 0001823 102.5182 257.6154 13.19724630161127
ONEWEB-0674             
1 55833U 23029AP  26185.23094149 -.00000134  00000+0 -39475-3 0  9994
2 55833  87.8962 286.3199 0001586  97.7000 262.4310 13.14501395161656
ONEWEB-0675             
1 55834U 23029AQ  26185.19019202 -.00000785  00000+0 -19927-2 0  9998
2 55834  87.9182 301.5904 0002273 100.4442 259.6947 13.19729469161161
ONEWEB-0720             
1 55835U 23029AR  26185.25812535  .00000140  00000+0  31661-3 0  9999
2 55835  87.9184 301.5770 0001947 109.8439 250.2904 13.19726008161099
ONEWEB-0537             
1 56046U 23043A   26185.06592263  .00000016  00000+0  91642-5 0  9991
2 56046  87.9075 225.4197 0002199  92.2153 267.9229 13.16593524161185
ONEWEB-0538             
1 56047U 23043B   26185.05958715 -.00000026  00000+0 -10216-3 0  9998
2 56047  87.9092 225.4231 0002251  99.1391 260.9994 13.16593424161195
ONEWEB-0546             
1 56048U 23043C   26184.81892950  .00000013  00000+0  12679-5 0  9991
2 56048  87.9086 225.4707 0002541  83.0043 277.1377 13.16593697161158
ONEWEB-0547             
1 56049U 23043D   26185.12842308  .00000018  00000+0  11519-4 0  9995
2 56049  87.9243 240.6037 0002123 102.7925 257.3446 13.21826634160469
ONEWEB-0548             
1 56050U 23043E   26184.84346774 -.00000077  00000+0 -23472-3 0  9998
2 56050  87.9082 225.4621 0001712  86.5406 273.5921 13.16593513161154
ONEWEB-0549             
1 56051U 23043F   26184.89545143 -.00000006  00000+0 -46762-4 0  9995
2 56051  87.9241 240.6557 0002396 103.1785 256.9617 13.21826794160437
ONEWEB-0550             
1 56052U 23043G   26185.10909329  .00000105  00000+0  22244-3 0  9997
2 56052  87.9243 240.6111 0001841  96.4565 263.6778 13.21826747160464
ONEWEB-0551             
1 56053U 23043H   26185.19207104  .00000191  00000+0  47449-3 0  9998
2 56053  87.8994 255.8385 0002250 106.8634 253.2743 13.15546840158635
ONEWEB-0552             
1 56054U 23043J   26185.10402566  .00000109  00000+0  23256-3 0  9998
2 56054  87.9239 240.6172 0001966 102.3297 257.8057 13.21825808160467
ONEWEB-0553             
1 56055U 23043K   26185.05325268  .00000013  00000+0  85858-6 0  9999
2 56055  87.9083 225.4246 0002219  85.9348 274.2036 13.16593939161195
ONEWEB-0554             
1 56056U 23043L   26185.04059207  .00000040  00000+0  72234-4 0  9998
2 56056  87.9085 225.4357 0001647  85.8856 274.2463 13.16593891161177
ONEWEB-0555             
1 56057U 23043M   26185.07858142 -.00000004  00000+0 -43188-4 0  9995
2 56057  87.9087 225.4173 0002417  83.0484 277.0921 13.16593246161184
ONEWEB-0557             
1 56058U 23043N   26185.09283221  .00000086  00000+0  19123-3 0  9997
2 56058  87.9085 225.4240 0001918  58.0873 302.0445 13.16593045161184
ONEWEB-0558             
1 56059U 23043P   26185.09730082  .00000108  00000+0  23079-3 0  9990
2 56059  87.9240 240.6136 0002359 101.1612 258.9788 13.21825354160479
ONEWEB-0559             
1 56060U 23043Q   26185.08551572  .00000076  00000+0  15189-3 0  9993
2 56060  87.9246 240.6116 0002117 104.2088 255.9282 13.21826561160486
ONEWEB-0566             
1 56061U 23043R   26185.15448249  .00000023  00000+0  23237-4 0  9994
2 56061  87.9243 240.5957 0002214 105.8755 254.2623 13.21828530160470
ONEWEB-0568             
1 56062U 23043S   26185.11026369  .00000074  00000+0  16124-3 0  9998
2 56062  87.9083 225.4100 0002234  88.9144 271.2243 13.16595645161201
ONEWEB-0574             
1 56063U 23043T   26185.14777961  .00000038  00000+0  61549-4 0  9995
2 56063  87.9248 240.6015 0001950  93.0388 267.0969 13.21825506160519
ONEWEB-0575             
1 56064U 23043U   26185.10392309  .00000151  00000+0  36162-3 0  9999
2 56064  87.9085 225.4078 0001963  83.2385 276.8969 13.16595059161195
ONEWEB-0576             
1 56065U 23043V   26185.08491749  .00000023  00000+0  26942-4 0  9999
2 56065  87.9086 225.4197 0001960  89.0778 271.0577 13.16594882161180
ONEWEB-0577             
1 56066U 23043W   26185.09126083  .00000108  00000+0  24889-3 0  9998
2 56066  87.9086 225.4161 0001630  74.5047 285.6264 13.16595219161217
