OBJECT_NAME,OBJECT_ID,EPOCH,MEAN_MOTION,ECCENTRICITY,INCLINATION,RA_OF_ASC_NODE,ARG_OF_PERICENTER,MEAN_ANOMALY,EPHEMERIS_TYPE,CLASSIFICATION_TYPE,NORAD_CAT_ID,ELEMENT_SET_NO,REV_AT_EPOCH,BSTAR,MEAN_MOTION_DOT,MEAN_MOTION_DDOT
ONEWEB-0667,2023-029AH,2026-07-04T05:23:10.696704,13.20772651,.00018698,87.9202,271.0364,101.7754,258.3589,0,U,55827,999,16339,-.1899657E-4,.5E-7,0
ONEWEB-0669,2023-029AJ,2026-07-03T18:21:21.549600,13.20772264,.0001871,87.9196,271.1381,83.3228,276.8118,0,U,55828,999,16333,-.1259115E-3,-.38E-6,0
ONEWEB-0670,2023-029AK,2026-07-04T06:18:14.895360,13.14501292,.00015439,87.8960,286.3369,99.9885,260.1420,0,U,55829,999,16167,.62979123E-3,.246E-5,0
ONEWEB-0671,2023-029AL,2026-07-04T06:34:26.466816,13.19725685,.00018146,87.9185,301.5726,103.5762,256.5573,0,U,55830,999,16115,.27895418E-3,.125E-5,0
ONEWEB-0672,2023-029AM,2026-07-04T05:08:36.593952,13.20772842,.00021697,87.9193,271.0422,93.6059,266.5323,0,U,55831,999,16339,-.3092985E-4,0,0
ONEWEB-0673,2023-029AN,2026-07-04T00:33:55.127808,13.19724630,.00018233,87.9192,301.6150,102.5182,257.6154,0,U,55832,999,16112,.14226488E-3,.7E-6,0
ONEWEB-0674,2023-029AP,2026-07-04T05:32:33.344736,13.14501395,.00015864,87.8962,286.3199,97.7000,262.4310,0,U,55833,999,16165,-.39475031E-3,-.134E-5,0
ONEWEB-0675,2023-029AQ,2026-07-04T04:33:52.590528,13.19729469,.00022733,87.9182,301.5904,100.4442,259.6947,0,U,55834,999,16116,-.19927067E-2,-.785E-5,0
ONEWEB-0720,2023-029AR,2026-07-04T06:11:42.030240,13.19726008,.00019472,87.9184,301.5770,109.8439,250.2904,0,U,55835,999,16109,.31661167E-3,.14E-5,0
ONEWEB-0537,2023-043A,2026-07-04T01:34:55.715232,13.16593524,.00021993,87.9075,225.4197,92.2153,267.9229,0,U,56046,999,16118,.9164247E-5,.16E-6,0
ONEWEB-0538,2023-043B,2026-07-04T01:25:48.329760,13.16593424,.00022519,87.9092,225.4231,99.1391,260.9994,0,U,56047,999,16119,-.10215847E-3,-.26E-6,0
ONEWEB-0546,2023-043C,2026-07-03T19:39:15.508800,13.16593697,.0002541,87.9086,225.4707,83.0043,277.1377,0,U,56048,999,16115,.1267936E-5,.13E-6,0
ONEWEB-0547,2023-043D,2026-07-04T03:04:55.754112,13.21826634,.00021231,87.9243,240.6037,102.7925,257.3446,0,U,56049,999,16046,.1151899E-4,.18E-6,0
ONEWEB-0548,2023-043E,2026-07-03T20:14:35.612736,13.16593513,.0001712,87.9082,225.4621,86.5406,273.5921,0,U,56050,999,16115,-.23471636E-3,-.77E-6,0
ONEWEB-0549,2023-043F,2026-07-03T21:29:27.003552,13.21826794,.00023969,87.9241,240.6557,103.1785,256.9617,0,U,56051,999,16043,-.46762418E-4,-.6E-7,0
ONEWEB-0550,2023-043G,2026-07-04T02:37:05.660256,13.21826747,.0001841,87.9243,240.6111,96.4565,263.6778,0,U,56052,999,16046,.2224368E-3,.105E-5,0
ONEWEB-0551,2023-043H,2026-07-04T04:36:34.937856,13.15546840,.00022504,87.8994,255.8385,106.8634,253.2743,0,U,56053,999,15863,.47448819E-3,.191E-5,0
ONEWEB-0552,2023-043J,2026-07-04T02:29:47.817024,13.21825808,.00019668,87.9239,240.6172,102.3297,257.8057,0,U,56054,999,16046,.23255811E-3,.109E-5,0
ONEWEB-0553,2023-043K,2026-07-04T01:16:41.031552,13.16593939,.00022196,87.9083,225.4246,85.9348,274.2036,0,U,56055,999,16119,.858576E-6,.13E-6,0
ONEWEB-0554,2023-043L,2026-07-04T00:58:27.154848,13.16593891,.00016479,87.9085,225.4357,85.8856,274.2463,0,U,56056,999,16117,.72233793E-4,.4E-6,0
ONEWEB-0555,2023-043M,2026-07-04T01:53:09.434688,13.16593246,.00024173,87.9087,225.4173,83.0484,277.0921,0,U,56057,999,16118,-.43188236E-4,-.4E-7,0
ONEWEB-0557,2023-043N,2026-07-04T02:13:40.702944,13.16593045,.00019181,87.9085,225.4240,58.0873,302.0445,0,U,56058,999,16118,.1912287E-3,.86E-6,0
ONEWEB-0558,2023-043P,2026-07-04T02:20:06.790848,13.21825354,.0002359,87.9240,240.6136,101.1612,258.9788,0,U,56059,999,16047,.23078881E-3,.108E-5,0
ONEWEB-0559,2023-043Q,2026-07-04T02:03:08.558208,13.21826561,.00021174,87.9246,240.6116,104.2088,255.9282,0,U,56060,999,16048,.15189476E-3,.76E-6,0
ONEWEB-0566,2023-043R,2026-07-04T03:42:27.287136,13.21828530,.00022149,87.9243,240.5957,105.8755,254.2623,0,U,56061,999,16047,.23236772E-4,.23E-6,0
ONEWEB-0568,2023-043S,2026-07-04T02:38:46.782816,13.16595645,.0002234,87.9083,225.4100,88.9144,271.2243,0,U,56062,999,16120,.1612382E-3,.74E-6,0
ONEWEB-0574,2023-043T,2026-07-04T03:32:48.158304,13.21825506,.00019509,87.9248,240.6015,93.0388,267.0969,0,U,56063,999,16051,.61548768E-4,.38E-6,0
ONEWEB-0575,2023-043U,2026-07-04T02:29:38.954976,13.16595059,.00019631,87.9085,225.4078,83.2385,276.8969,0,U,56064,999,16119,.36161641E-3,.151E-5,0
ONEWEB-0576,2023-043V,2026-07-04T02:02:16.871136,13.16594882,.000196,87.9086,225.4197,89.0778,271.0577,0,U,56065,999,16118,.26941754E-4,.23E-6,0
ONEWEB-0577,2023-043W,2026-07-04T02:11:24.935712,13.16595219,.00016307,87.9086,225.4161,74.5047,285.6264,0,U,56066,999,16121,.24888567E-3,.108E-5,0
